[{"OBJECT_NAME":"STARLINK-30499","OBJECT_ID":"2023-147F","EPOCH":"2026-03-09T07:25:00.382944","MEAN_MOTION":15.27574229,"ECCENTRICITY":0.0001804,"INCLINATION":43.0037,"RA_OF_ASC_NODE":182.3695,"ARG_OF_PERICENTER":279.5416,"MEAN_ANOMALY":80.5232,"EPHEMERIS_TYPE":0,"CLASSIFICATION_TYPE":"U","NORAD_CAT_ID":57918,"ELEMENT_SET_NO":999,"REV_AT_EPOCH":13827,"BSTAR":5.9523008e-5,"MEAN_MOTION_DOT":1.376e-5,"MEAN_MOTION_DDOT":0},{"OBJECT_NAME":"WT 1B","OBJECT_ID":"2019-032G","EPOCH":"2026-03-09T21:42:21.881088","MEAN_MOTION":15.25021485,"ECCENTRICITY":0.0008099,"INCLINATION":44.9738,"RA_OF_ASC_NODE":242.0209,"ARG_OF_PERICENTER":49.7728,"MEAN_ANOMALY":310.3861,"EPHEMERIS_TYPE":0,"CLASSIFICATION_TYPE":"U","NORAD_CAT_ID":44316,"ELEMENT_SET_NO":999,"REV_AT_EPOCH":37191,"BSTAR":0.00065022477,"MEAN_MOTION_DOT":0.00016297,"MEAN_MOTION_DDOT":0}]
